{"type": "FeatureCollection", "features": [{"type": "Feature", "properties": {"norad_id": 22490, "name": "SCD 1", "group": "resource", "lat": -22.797081289578546, "lon": 107.96399909407909, "alt_km": 768.9287391973012, "timestamp": "2025-12-21T16:47:54.385116+00:00", "meta": {"OBJECT_NAME": "SCD 1", "OBJECT_ID": "1993-009B", "EPOCH": "2025-12-20T20:00:20.608704", "MEAN_MOTION": 14.46004096, "ECCENTRICITY": 0.0042122, "INCLINATION": 24.9682, "RA_OF_ASC_NODE": 228.7229, "ARG_OF_PERICENTER": 50.6528, "MEAN_ANOMALY": 356.9599, "EPHEMERIS_TYPE": 0, "CLASSIFICATION_TYPE": "U", "NORAD_CAT_ID": 22490, "ELEMENT_SET_NO": 999, "REV_AT_EPOCH": 73527, "BSTAR": 6.2642e-05, "MEAN_MOTION_DOT": 4.14e-06, "MEAN_MOTION_DDOT": 0}, "tle": {"line1": "1 22490U 93009B   25354.83357186  .00000414  00000+0  62642-4 0  9990", "line2": "2 22490  24.9682 228.7229 0042122  50.6528 356.9599 14.46004096735273"}}, "geometry": {"type": "Point", "coordinates": [107.96399909407909, -22.797081289578546]}}, {"type": "Feature", "properties": {"norad_id": 25397, "name": "TECHSAT 1B (GO-32)", "group": "resource", "lat": 8.833803759126504, "lon": -22.291054363308543, "alt_km": 811.2051785710992, "timestamp": "2025-12-21T16:47:54.385143+00:00", "meta": {"OBJECT_NAME": "TECHSAT 1B (GO-32)", "OBJECT_ID": "1998-043D", "EPOCH": "2025-12-21T11:41:56.072256", "MEAN_MOTION": 14.24379327, "ECCENTRICITY": 0.0001781, "INCLINATION": 98.9929, "RA_OF_ASC_NODE": 338.9018, "ARG_OF_PERICENTER": 43.3962, "MEAN_ANOMALY": 316.7356, "EPHEMERIS_TYPE": 0, "CLASSIFICATION_TYPE": "U", "NORAD_CAT_ID": 25397, "ELEMENT_SET_NO": 999, "REV_AT_EPOCH": 42603, "BSTAR": 4.1311e-05, "MEAN_MOTION_DOT": 4.9e-07, "MEAN_MOTION_DDOT": 0}, "tle": {"line1": "1 25397U 98043D   25355.48745454  .00000049  00000+0  41311-4 0  9997", "line2": "2 25397  98.9929 338.9018 0001781  43.3962 316.7356 14.24379327426038"}}, "geometry": {"type": "Point", "coordinates": [-22.291054363308543, 8.833803759126504]}}, {"type": "Feature", "properties": {"norad_id": 25504, "name": "SCD 2", "group": "resource", "lat": -24.573648176348367, "lon": -14.388125973799035, "alt_km": 751.4998475415741, "timestamp": "2025-12-21T16:47:54.385157+00:00", "meta": {"OBJECT_NAME": "SCD 2", "OBJECT_ID": "1998-060A", "EPOCH": "2025-12-21T09:13:38.675424", "MEAN_MOTION": 14.4542769, "ECCENTRICITY": 0.0017001, "INCLINATION": 24.9948, "RA_OF_ASC_NODE": 88.591, "ARG_OF_PERICENTER": 44.911, "MEAN_ANOMALY": 10.3186, "EPHEMERIS_TYPE": 0, "CLASSIFICATION_TYPE": "U", "NORAD_CAT_ID": 25504, "ELEMENT_SET_NO": 999, "REV_AT_EPOCH": 43457, "BSTAR": 5.5616e-05, "MEAN_MOTION_DOT": 3.81e-06, "MEAN_MOTION_DDOT": 0}, "tle": {"line1": "1 25504U 98060A   25355.38447541  .00000381  00000+0  55616-4 0  9993", "line2": "2 25504  24.9948  88.5910 0017001  44.9110  10.3186 14.45427690434577"}}, "geometry": {"type": "Point", "coordinates": [-14.388125973799035, -24.573648176348367]}}, {"type": "Feature", "properties": {"norad_id": 25757, "name": "DLR-TUBSAT", "group": "resource", "lat": 47.54261907954187, "lon": -29.09448110679029, "alt_km": 718.2610943966438, "timestamp": "2025-12-21T16:47:54.385170+00:00", "meta": {"OBJECT_NAME": "DLR-TUBSAT", "OBJECT_ID": "1999-029B", "EPOCH": "2025-12-17T13:22:10.787520", "MEAN_MOTION": 14.52359578, "ECCENTRICITY": 0.00141996, "INCLINATION": 98.6566, "RA_OF_ASC_NODE": 336.2196, "ARG_OF_PERICENTER": 177.8976, "MEAN_ANOMALY": 182.2281, "EPHEMERIS_TYPE": 0, "CLASSIFICATION_TYPE": "U", "NORAD_CAT_ID": 25757, "ELEMENT_SET_NO": 999, "REV_AT_EPOCH": 40688, "BSTAR": 3.7650132e-05, "MEAN_MOTION_DOT": 1.05e-06, "MEAN_MOTION_DDOT": 0}, "tle": {"line1": "1 25757U 99029B   25351.55706930  .00000105  00000+0  37650-4 0  9996", "line2": "2 25757  98.6566 336.2196 0014199 177.8976 182.2281 14.52359578406886"}}, "geometry": {"type": "Point", "coordinates": [-29.09448110679029, 47.54261907954187]}}, {"type": "Feature", "properties": {"norad_id": 25994, "name": "TERRA", "group": "resource", "lat": 26.09490335085044, "lon": 43.11859712051544, "alt_km": 687.7319361171076, "timestamp": "2025-12-21T16:47:54.385182+00:00", "meta": {"OBJECT_NAME": "TERRA", "OBJECT_ID": "1999-068A", "EPOCH": "2025-12-21T10:21:38.371968", "MEAN_MOTION": 14.60910943, "ECCENTRICITY": 0.0003514, "INCLINATION": 97.9736, "RA_OF_ASC_NODE": 46.7967, "ARG_OF_PERICENTER": 77.1651, "MEAN_ANOMALY": 339.4267, "EPHEMERIS_TYPE": 0, "CLASSIFICATION_TYPE": "U", "NORAD_CAT_ID": 25994, "ELEMENT_SET_NO": 999, "REV_AT_EPOCH": 38365, "BSTAR": 8.7729e-05, "MEAN_MOTION_DOT": 3.85e-06, "MEAN_MOTION_DDOT": 0}, "tle": {"line1": "1 25994U 99068A   25355.43169412  .00000385  00000+0  87729-4 0  9993", "line2": "2 25994  97.9736  46.7967 0003514  77.1651 339.4267 14.60910943383657"}}, "geometry": {"type": "Point", "coordinates": [43.11859712051544, 26.09490335085044]}}, {"type": "Feature", "properties": {"norad_id": 27004, "name": "MAROC-TUBSAT", "group": "resource", "lat": -23.255416417982143, "lon": 168.5576080566743, "alt_km": 1006.4206760702855, "timestamp": "2025-12-21T16:47:54.385194+00:00", "meta": {"OBJECT_NAME": "MAROC-TUBSAT", "OBJECT_ID": "2001-056D", "EPOCH": "2025-12-21T10:02:43.183104", "MEAN_MOTION": 13.70253322, "ECCENTRICITY": 0.0019195, "INCLINATION": 99.7916, "RA_OF_ASC_NODE": 164.0156, "ARG_OF_PERICENTER": 237.1012, "MEAN_ANOMALY": 151.8705, "EPHEMERIS_TYPE": 0, "CLASSIFICATION_TYPE": "U", "NORAD_CAT_ID": 27004, "ELEMENT_SET_NO": 999, "REV_AT_EPOCH": 20184, "BSTAR": 1.912e-05, "MEAN_MOTION_DOT": -3e-07, "MEAN_MOTION_DDOT": 0}, "tle": {"line1": "1 27004U 01056D   25355.41855536 -.00000030  00000+0  19120-4 0  9992", "line2": "2 27004  99.7916 164.0156 0019195 237.1012 151.8705 13.70253322201840"}}, "geometry": {"type": "Point", "coordinates": [168.5576080566743, -23.255416417982143]}}, {"type": "Feature", "properties": {"norad_id": 27424, "name": "AQUA", "group": "resource", "lat": -67.24312265488642, "lon": -22.6371448040076, "alt_km": 695.5388956035149, "timestamp": "2025-12-21T16:47:54.385205+00:00", "meta": {"OBJECT_NAME": "AQUA", "OBJECT_ID": "2002-022A", "EPOCH": "2025-12-20T21:44:41.124192", "MEAN_MOTION": 14.61819722, "ECCENTRICITY": 0.0001418, "INCLINATION": 98.4047, "RA_OF_ASC_NODE": 315.9181, "ARG_OF_PERICENTER": 110.6839, "MEAN_ANOMALY": 325.0971, "EPHEMERIS_TYPE": 0, "CLASSIFICATION_TYPE": "U", "NORAD_CAT_ID": 27424, "ELEMENT_SET_NO": 999, "REV_AT_EPOCH": 25722, "BSTAR": 0.00013306, "MEAN_MOTION_DOT": 6.15e-06, "MEAN_MOTION_DDOT": 0}, "tle": {"line1": "1 27424U 02022A   25354.90603153  .00000615  00000+0  13306-3 0  9998", "line2": "2 27424  98.4047 315.9181 0001418 110.6839 325.0971 14.61819722257229"}}, "geometry": {"type": "Point", "coordinates": [-22.6371448040076, -67.24312265488642]}}, {"type": "Feature", "properties": {"norad_id": 28051, "name": "IRS-P6 (RESOURCESAT-1)", "group": "resource", "lat": 44.976723477686505, "lon": 27.39065510917367, "alt_km": 781.8020158876234, "timestamp": "2025-12-21T16:47:54.385215+00:00", "meta": {"OBJECT_NAME": "IRS-P6 (RESOURCESAT-1)", "OBJECT_ID": "2003-046A", "EPOCH": "2025-12-21T13:57:16.142976", "MEAN_MOTION": 14.36078838, "ECCENTRICITY": 0.0064704, "INCLINATION": 98.2167, "RA_OF_ASC_NODE": 35.5788, "ARG_OF_PERICENTER": 154.2189, "MEAN_ANOMALY": 359.8713, "EPHEMERIS_TYPE": 0, "CLASSIFICATION_TYPE": "U", "NORAD_CAT_ID": 28051, "ELEMENT_SET_NO": 999, "REV_AT_EPOCH": 15503, "BSTAR": 9.4151e-05, "MEAN_MOTION_DOT": 2.4e-06, "MEAN_MOTION_DDOT": 0}, "tle": {"line1": "1 28051U 03046A   25355.58143684  .00000240  00000+0  94151-4 0  9997", "line2": "2 28051  98.2167  35.5788 0064704 154.2189 359.8713 14.36078838155036"}}, "geometry": {"type": "Point", "coordinates": [27.39065510917367, 44.976723477686505]}}, {"type": "Feature", "properties": {"norad_id": 28220, "name": "SHIYAN-1 (SY-1)", "group": "resource", "lat": 8.826479516837354, "lon": 56.53372846081329, "alt_km": 481.9996105267164, "timestamp": "2025-12-21T16:47:54.385226+00:00", "meta": {"OBJECT_NAME": "SHIYAN-1 (SY-1)", "OBJECT_ID": "2004-012A", "EPOCH": "2025-12-21T04:11:20.401152", "MEAN_MOTION": 15.28343782, "ECCENTRICITY": 0.00052177, "INCLINATION": 97.8926, "RA_OF_ASC_NODE": 57.2116, "ARG_OF_PERICENTER": 290.4683, "MEAN_ANOMALY": 69.5995, "EPHEMERIS_TYPE": 0, "CLASSIFICATION_TYPE": "U", "NORAD_CAT_ID": 28220, "ELEMENT_SET_NO": 999, "REV_AT_EPOCH": 18385, "BSTAR": 0.00033294584, "MEAN_MOTION_DOT": 9.113e-05, "MEAN_MOTION_DDOT": 0}, "tle": {"line1": "1 28220U 04012A   25355.17454168  .00009113  00000+0  33295-3 0  9995", "line2": "2 28220  97.8926  57.2116 0005217 290.4683  69.5995 15.28343782183857"}}, "geometry": {"type": "Point", "coordinates": [56.53372846081329, 8.826479516837354]}}, {"type": "Feature", "properties": {"norad_id": 28376, "name": "AURA", "group": "resource", "lat": 34.223921843341, "lon": -59.74382992965789, "alt_km": 687.3172082273304, "timestamp": "2025-12-21T16:47:54.385237+00:00", "meta": {"OBJECT_NAME": "AURA", "OBJECT_ID": "2004-026A", "EPOCH": "2025-12-21T11:42:33.285600", "MEAN_MOTION": 14.60965043, "ECCENTRICITY": 0.0001386, "INCLINATION": 98.3197, "RA_OF_ASC_NODE": 305.7556, "ARG_OF_PERICENTER": 92.468, "MEAN_ANOMALY": 267.6679, "EPHEMERIS_TYPE": 0, "CLASSIFICATION_TYPE": "U", "NORAD_CAT_ID": 28376, "ELEMENT_SET_NO": 999, "REV_AT_EPOCH": 14026, "BSTAR": 0.00017271, "MEAN_MOTION_DOT": 7.98e-06, "MEAN_MOTION_DDOT": 0}, "tle": {"line1": "1 28376U 04026A   25355.48788525  .00000798  00000+0  17271-3 0  9999", "line2": "2 28376  98.3197 305.7556 0001386  92.4680 267.6679 14.60965043140267"}}, "geometry": {"type": "Point", "coordinates": [-59.74382992965789, 34.223921843341]}}]}